162P/Siding Spring,e,27.5600,30.9451,357.1028,3.091294,0.1813400,0.58305436,306.7248,02/18.0/2020,2000,g  9.0,4.0
# From MPC102101
163P/NEAT,e,12.7079,102.0915,349.6853,3.770579,0.1346146,0.45193166,26.4921,02/18.0/2020,2000,g 14.5,4.0
# From MPC106349
164P/Christensen,e,16.2533,88.3056,325.8746,3.658822,0.1408290,0.53962669,88.3984,02/18.0/2020,2000,g 11.0,4.0
# From MPC 75721
165P/LINEAR,e,15.9002,0.7263,126.2720,17.90773,0.0130060,0.61488088,93.7902,02/18.0/2020,2000,g 11.5,2.0
# From MPC 75722
166P/NEAT,e,15.3603,64.5130,321.4832,13.83737,0.0191480,0.38165457,124.4501,02/18.0/2020,2000,g  5.5,4.0
# From MPC 75722
167P/CINEOS,e,19.1204,295.6591,344.0718,16.17998,0.0151439,0.27313898,103.9649,02/18.0/2020,2000,g  9.5,2.0
# From MPC102101
168P/Hergenrother,e,21.6116,355.4675,14.9920,3.581903,0.1453896,0.62063387,28.6186,02/18.0/2020,2000,g 15.5,4.0
# From MPEC 2015-M77
169P/NEAT,e,11.2950,176.0863,218.0757,2.601507,0.2348911,0.76793355,154.9197,02/18.0/2020,2000,g  9.0,4.0
# From MPC 89012
170P/Christensen,e,10.1249,142.9191,225.6650,4.198091,0.1145846,0.30332270,227.1882,02/18.0/2020,2000,g 12.0,4.0
# From MPC102102
171P/Spahr,e,21.9338,101.6962,347.1260,3.556922,0.1469239,0.50174940,58.8223,02/18.0/2020,2000,g 13.5,4.0
# From MPEC 2019-VB6
172P/Yeung,e,11.2341,30.8963,209.3470,4.209938,0.1141013,0.20628272,122.2227,02/18.0/2020,2000,g 13.0,4.0
# From MPEC 2019-VB6
173P/Mueller,e,16.4972,100.4011,29.3897,5.700014,0.0724253,0.26052447,311.5243,02/18.0/2020,2000,g  7.5,4.0
# From MPC 92985
174P/Echeclus,e,4.3431,173.2744,162.8851,10.70012,0.0281593,0.45691139,49.6241,02/18.0/2020,2000,g  9.4,2.0
# From MPC114608
175P/Hergenrother,e,6.0773,123.5315,56.2060,3.427589,0.1553177,0.43214715,21.7721,02/18.0/2020,2000,g 14.0,4.0
# From MPC 89015
176P/LINEAR,e,0.2347,345.8791,35.1752,3.193169,0.1727313,0.19293589,185.4869,02/18.0/2020,2000,g 15.1,2.0
# From MPC 75723
177P/Barnard,e,31.3371,272.3578,60.1635,24.37168,0.0081917,0.95502419,40.3133,02/18.0/2020,2000,g 15.0,4.0
# From MPC105242
178P/Hug-Bell,e,11.0897,102.8748,297.7793,3.630191,0.1424984,0.48175888,338.6825,02/18.0/2020,2000,g 13.5,4.0
# From MPC 75723
179P/Jedicke,e,19.8982,115.5246,296.4306,5.944757,0.0679991,0.30602328,303.6139,02/18.0/2020,2000,g  2.5,8.0
# From MPC100284
180P/NEAT,e,16.8684,84.5559,94.9072,3.860671,0.1299301,0.35348623,198.7927,02/18.0/2020,2000,g 11.0,4.0
# From MPC 89012
181P/Shoemaker-Levy,e,17.4854,35.4114,336.2603,3.870476,0.1294367,0.70030705,270.5627,02/18.0/2020,2000,g 11.5,4.0
# From MPEC 2014-J10
182P/LONEOS,e,16.2404,72.7579,53.7884,2.957020,0.1938308,0.66118029,201.9594,02/18.0/2020,2000,g 18.0,4.0
# From MPC110085
183P/Korlevic-Juric,e,18.6790,5.4966,163.3267,4.514259,0.1027601,0.13987941,83.8516,02/18.0/2020,2000,g 12.5,2.0
# From MPC105242
184P/Lovas,e,4.5722,173.2910,186.4164,3.795406,0.1332959,0.55137088,326.5200,02/18.0/2020,2000,g 13.5,4.0
# From MPC109593
185P/Petriew,e,13.9961,214.0965,181.8914,3.099774,0.1805964,0.69883071,135.7147,02/18.0/2020,2000,g 15.0,4.0
# From MPC100284
186P/Garradd,e,28.4641,326.8843,283.9972,5.012843,0.0878169,0.12436899,25.3524,02/18.0/2020,2000,g  7.5,4.0
# From MPC104795
187P/LINEAR,e,13.6347,109.9235,132.3424,4.575679,0.1006980,0.15261868,64.4167,02/18.0/2020,2000,g  9.0,4.0
# From MPC106349
188P/LINEAR-Mueller,e,10.5177,358.9561,26.6106,4.377086,0.1076283,0.41501912,117.9863,02/18.0/2020,2000,g 11.5,4.0
# From MPC106349
189P/NEAT,e,20.0738,281.7408,16.2460,2.947425,0.1947780,0.58865302,180.2949,02/18.0/2020,2000,g 19.0,4.0
# From MPC 75724
190P/Mueller,e,2.1738,335.5680,50.3001,4.236410,0.1130335,0.52058943,159.5686,02/18.0/2020,2000,g 13.0,4.0
# From MPC 92277
191P/McNaught,e,8.8454,98.2426,283.8669,3.642356,0.1417851,0.38719007,303.9223,02/18.0/2020,2000,g 13.0,4.0
# From MPC 75724
192P/Shoemaker-Levy,e,24.5286,51.6506,312.8920,6.478878,0.0597660,0.77261514,266.8649,02/18.0/2020,2000,g 15.0,4.0
# From MPC 92277
193P/LINEAR-NEAT,e,10.6870,335.1935,8.2747,3.574964,0.1458131,0.39396580,279.0981,02/18.0/2020,2000,g 14.0,4.0
# From MPC 98566
194P/LINEAR,e,11.1631,351.6852,130.7025,3.987840,0.1237649,0.57714957,179.2054,02/18.0/2020,2000,g 16.0,4.0
# From MPC 75724
195P/Hill,e,36.3418,243.0952,249.5207,6.496861,0.0595180,0.31337406,241.6028,02/18.0/2020,2000,g  8.5,4.0
# From MPC 92985
196P/Tichy,e,19.3053,24.2159,12.3467,3.796808,0.1332220,0.42875436,228.7230,02/18.0/2020,2000,g 13.5,4.0
# From MPC 94676
197P/LINEAR,e,25.5512,66.3947,188.7288,2.867144,0.2030158,0.62996890,152.2867,02/18.0/2020,2000,g 16.5,2.0
# From NK 1596
198P/ODAS,e,1.3384,358.2493,69.2800,3.601173,0.1442242,0.44311879,62.1854,02/18.0/2020,2000,g  9.0,4.0
# From MPC 75725
199P/Shoemaker,e,24.9357,92.4003,191.5460,5.899778,0.0687782,0.50600956,272.8939,02/18.0/2020,2000,g 10.0,4.0
# From MPC118098
200P/Larsen,e,12.1049,234.8037,133.9978,4.936280,0.0898679,0.33202873,18.3662,02/18.0/2020,2000,g  9.0,4.0
# From MPC 93588
201P/LONEOS,e,5.7422,20.3552,40.8109,3.364474,0.1597086,0.63838209,286.0667,02/18.0/2020,2000,g 14.0,4.0
# From MPC103849
202P/Scotti,e,2.0258,184.2795,272.6816,3.961699,0.1249919,0.29514600,169.6943,02/18.0/2020,2000,g 13.5,4.0
# From MPEC 2019-TG9
203P/Korlevic,e,2.9733,290.3493,154.8804,4.671017,0.0976308,0.31497149,358.4320,02/18.0/2020,2000,g 14.5,2.0
# From MPC 98566
204P/LINEAR-NEAT,e,6.6350,108.8344,354.8466,3.633663,0.1422942,0.47974258,216.8265,02/18.0/2020,2000,g 14.0,4.0
# From MPC 98566
205P/Giacobini,e,15.2991,179.5986,154.1781,3.543236,0.1477760,0.56770793,257.2109,02/18.0/2020,2000,g 13.0,4.0
# From MPC 75725
206P/Barnard-Boattini,e,33.6351,202.3962,189.4228,3.488278,0.1512821,0.55147528,302.4429,02/18.0/2020,2000,g 19.0,4.0
# From MPC 75725
207P/NEAT,e,10.1488,199.9114,271.6821,3.865628,0.1296803,0.75988184,172.1654,02/18.0/2020,2000,g 16.0,4.0
# From MPC101100
208P/McMillan,e,4.4086,36.3743,310.3813,4.047894,0.1210209,0.37307524,160.4384,02/18.0/2020,2000,g 12.5,4.0
# From MPC 90771
209P/LINEAR,e,21.2580,62.7680,152.4876,2.960656,0.1934738,0.67326901,48.4083,02/18.0/2020,2000,g 17.0,2.0
# From MPC105242
210P/Christensen,e,10.2619,93.8356,345.9091,3.166052,0.1749552,0.83323225,351.2656,02/18.0/2020,2000,g 13.5,4.0
# From MPC 96868
211P/Hill,e,18.9205,117.1370,4.1241,3.549702,0.1473724,0.34210272,218.4600,02/18.0/2020,2000,g 12.5,4.0
# From MPC104795
212P/NEAT,e,22.6678,98.7052,14.4414,3.886921,0.1286162,0.58744362,161.3418,02/18.0/2020,2000,g 17.0,2.0
# From MPC114608
213P/Van Ness,e,10.3813,311.3009,5.5949,3.348417,0.1608588,0.40798214,140.9503,02/18.0/2020,2000,g 10.5,4.0
# From MPC 92986
214P/LINEAR,e,15.1879,348.2659,190.2935,3.615526,0.1433662,0.48611531,223.6159,02/18.0/2020,2000,g 13.0,4.0
# From MPC118098
215P/NEAT,e,10.5813,56.6874,262.0498,4.328605,0.1094415,0.16722541,10.0534,02/18.0/2020,2000,g 11.0,4.0
# From MPC100284
216P/LINEAR,e,9.0500,359.8237,151.3865,3.870435,0.1294388,0.44541603,175.9215,02/18.0/2020,2000,g 13.0,4.0
# From MPC108598
217P/LINEAR,e,12.8632,125.4708,246.8623,3.952296,0.1254382,0.68808461,118.7012,02/18.0/2020,2000,g 12.0,4.0
# From MPC105242
218P/LINEAR,e,2.7253,175.9785,59.7708,3.094695,0.1810412,0.62193001,318.5843,02/18.0/2020,2000,g 16.0,4.0
# From MPC100284
219P/LINEAR,e,11.5290,231.0060,107.3485,3.651467,0.1412547,0.35334767,154.2373,02/18.0/2020,2000,g 11.0,4.0
# From MPC105242
220P/McNaught,e,8.1280,150.1120,180.5675,3.115019,0.1792722,0.50177865,306.8090,02/18.0/2020,2000,g 15.0,4.0
# From MPC 93589
221P/LINEAR,e,11.4263,229.7303,40.0178,3.458302,0.1532533,0.49280948,257.4891,02/18.0/2020,2000,g 14.5,4.0
# From MPC 92277
222P/LINEAR,e,5.0943,6.8043,346.2252,2.899420,0.1996353,0.71432990,51.4935,02/18.0/2020,2000,g 20.0,4.0
# From MPEC 2019-VB6
223P/Skiff,e,27.0144,346.7801,37.8282,4.159287,0.1161919,0.41560815,44.9342,02/18.0/2020,2000,g 12.0,4.0
# From MPC 75727
224P/LINEAR-NEAT,e,13.3384,40.4000,16.8256,3.434889,0.1548228,0.40927353,212.2289,02/18.0/2020,2000,g 15.5,4.0
# From MPC 75727
225P/LINEAR,e,21.3443,14.1820,3.8733,3.651390,0.1412592,0.63746660,180.8847,02/18.0/2020,2000,g 18.0,4.0
# From MPC106349
226P/Pigott-LINEAR-Kowalski,e,44.0052,54.0059,341.0659,3.768079,0.1347486,0.52811983,170.0557,02/18.0/2020,2000,g 12.5,4.0
# From MPC102956
227P/Catalina-LINEAR,e,6.5121,49.5763,90.0523,3.573497,0.1459029,0.50458752,141.4954,02/18.0/2020,2000,g 16.5,2.0
# From MPEC 2017-X08
228P/LINEAR,e,7.9095,30.9897,115.3037,4.174593,0.1155534,0.17696170,357.4904,02/18.0/2020,2000,g 14.5,2.0
# From MPC106349
229P/Gibbs,e,26.0819,157.8958,224.0018,3.932107,0.1264056,0.37632629,126.8429,02/18.0/2020,2000,g 13.0,4.0
# From MPC110497
230P/LINEAR,e,15.5113,107.0281,313.8503,3.441048,0.1544074,0.55101753,242.9771,02/18.0/2020,2000,g 13.0,4.0
# From MPC114608
231P/LINEAR-NEAT,e,12.3341,133.0277,42.8006,4.017248,0.1224084,0.24756523,30.4213,02/18.0/2020,2000,g 14.5,2.0
# From MPC112394
232P/Hill,e,14.6305,56.0237,53.5120,4.483725,0.1038116,0.33441425,32.9727,02/18.0/2020,2000,g 11.5,4.0
# From MPC 92986
233P/La Sagra,e,11.2842,74.9268,27.0761,3.030087,0.1868622,0.41171029,317.6365,02/18.0/2020,2000,g 15.0,4.0
# From MPC110497
234P/LINEAR,e,11.5221,179.5745,357.4353,3.803863,0.1328516,0.25394680,132.1069,02/18.0/2020,2000,g 12.0,4.0
# From MPC110497
235P/LINEAR,e,8.8821,204.0606,333.6045,3.988705,0.1237246,0.31875271,86.9934,02/18.0/2020,2000,g 12.0,4.0
# From MPC107688
236P/LINEAR,e,16.3337,245.6610,119.2029,3.731766,0.1367201,0.50826595,112.0716,02/18.0/2020,2000,g 14.0,4.0
# From MPC109593
237P/LINEAR,e,14.0224,245.4189,25.1572,3.512436,0.1497240,0.43474985,183.2036,02/18.0/2020,2000,g 14.5,2.0
# From MPC107688
238P/Read,e,1.2645,51.6430,324.7331,3.163062,0.1752034,0.25234307,212.7950,02/18.0/2020,2000,g 14.5,4.0
# From MPC112394
239P/LINEAR,e,11.3048,255.9103,220.4129,4.470685,0.1042661,0.63083895,42.1074,02/18.0/2020,2000,g 17.5,2.0
# From MPC109593
240P/NEAT,e,23.5047,74.9242,352.0264,3.869021,0.1295097,0.44869819,83.3204,02/18.0/2020,2000,g 11.0,4.0
# From MPC 75729
